{"type":"FeatureCollection","features":[{"type":"Feature","geometry":{"type":"Point","coordinates":[107.57619,-6.873735]},"properties":{"label":"Logic Coffee ULBI - Jl. Sariasih No.54, Bandung, 40151, Indonesia"}},{"type":"Feature","properties":{},"geometry":{"type":"Polygon","coordinates":[[[107.576021,-6.87328],[107.575965,-6.873661],[107.576225,-6.873706],[107.576259,-6.873503],[107.576273,-6.873414],[107.57629,-6.873321],[107.576021,-6.87328]]]}},{"type":"Feature","properties":{},"geometry":{"type":"Polygon","coordinates":[[[107.575258,-6.87322],[107.575242,-6.873427],[107.575226,-6.873587],[107.575788,-6.873629],[107.575812,-6.873264],[107.575525,-6.873242],[107.575258,-6.87322]]]}},{"type":"Feature","geometry":{"type":"Point","coordinates":[125.6,10.1]},"properties":{"name":"Dinagat Islands"}}]}